QIANFAN-104             
1 66046U 25233P   25312.16068613  .00000922  00000+0  37795-3 0  9997
2 66046  88.9954  66.0108 0015900 145.1480 215.0758 14.26274927  3113
QIANFAN-105             
1 66047U 25233Q   25312.16018534  .00000919  00000+0  37639-3 0  9998
2 66047  88.9953  66.0106 0016088 145.2731 214.9516 14.26333221  3112
QIANFAN-106             
1 66048U 25233R   25312.16024450  .00000903  00000+0  36995-3 0  9990
2 66048  88.9954  66.0106 0015958 144.9529 215.2718 14.26316457  3110
QIANFAN-107             
1 66049U 25233S   25312.15998233  .00000912  00000+0  37338-3 0  9991
2 66049  88.9953  66.0105 0016746 143.1144 217.1205 14.26345393  3112
QIANFAN-108             
1 66050U 25233T   25312.15969586  .00000902  00000+0  36919-3 0  9995
2 66050  88.9953  66.0104 0016716 144.7844 215.4458 14.26358377  3111
CZ-6A R/B               
1 66051U 25233U   25312.11551455  .00000490  00000+0  99721-4 0  9997
2 66051  89.0292  65.9396 0085484  45.4153 315.3992 14.57016340  3173
2025-234A               
1 66053U 25234A   25312.17832850  .00038879  00000+0  16612-2 0  9995
2 66053  97.4606  17.6924 0014560 215.0046 145.0235 15.22657972  3051
2025-234B               
1 66054U 25234B   25312.18923713  .00010460  00000+0  46985-3 0  9999
2 66054  97.5034  17.7843 0014284 206.6458 153.4045 15.21252721  3059
2025-234C               
1 66055U 25234C   25312.18763132  .00008694  00000+0  38933-3 0  9997
2 66055  97.4557  17.6676 0014953 208.7239 151.3174 15.21402493  3058
2025-234D               
1 66056U 25234D   25312.18504875  .00027173  00000+0  11889-2 0  9998
2 66056  97.4535  17.6655 0014871 208.1847 151.8585 15.21927002  3048
2025-234E               
1 66057U 25234E   25311.92176513  .00411763  00000+0  11834-1 0  9995
2 66057  97.4830  17.6456 0013477 228.4016 131.6072 15.34034227  3027
STARLINK-35552          
1 66058U 25235A   25312.16668980  .00137826  00000+0  10155-2 0  9999
2 66058  53.1569  92.2093 0001737  21.8086 232.7517 15.72129886  4318
