CCSDS_OMM_VERS = 2.0
CREATION_DATE  = 
ORIGINATOR     = 

OBJECT_NAME    = QIANFAN-104
OBJECT_ID      = 2025-233P
CENTER_NAME    = EARTH
REF_FRAME      = TEME
TIME_SYSTEM    = UTC
MEAN_ELEMENT_THEORY = SGP/SGP4

EPOCH          = 2025-11-08T03:51:23.281632
MEAN_MOTION    = 14.26274927
ECCENTRICITY   = .00159
INCLINATION    = 88.9954
RA_OF_ASC_NODE = 66.0108
ARG_OF_PERICENTER = 145.1480
MEAN_ANOMALY   = 215.0758

EPHEMERIS_TYPE = 0
CLASSIFICATION_TYPE = U
NORAD_CAT_ID   = 66046
ELEMENT_SET_NO = 999
REV_AT_EPOCH   = 311
BSTAR          = .37795E-3
MEAN_MOTION_DOT = .922E-5
MEAN_MOTION_DDOT = 0

CCSDS_OMM_VERS = 2.0
CREATION_DATE  = 
ORIGINATOR     = 

OBJECT_NAME    = QIANFAN-105
OBJECT_ID      = 2025-233Q
CENTER_NAME    = EARTH
REF_FRAME      = TEME
TIME_SYSTEM    = UTC
MEAN_ELEMENT_THEORY = SGP/SGP4

EPOCH          = 2025-11-08T03:50:40.013376
MEAN_MOTION    = 14.26333221
ECCENTRICITY   = .0016088
INCLINATION    = 88.9953
RA_OF_ASC_NODE = 66.0106
ARG_OF_PERICENTER = 145.2731
MEAN_ANOMALY   = 214.9516

EPHEMERIS_TYPE = 0
CLASSIFICATION_TYPE = U
NORAD_CAT_ID   = 66047
ELEMENT_SET_NO = 999
REV_AT_EPOCH   = 311
BSTAR          = .37639E-3
MEAN_MOTION_DOT = .919E-5
MEAN_MOTION_DDOT = 0

CCSDS_OMM_VERS = 2.0
CREATION_DATE  = 
ORIGINATOR     = 

OBJECT_NAME    = QIANFAN-106
OBJECT_ID      = 2025-233R
CENTER_NAME    = EARTH
REF_FRAME      = TEME
TIME_SYSTEM    = UTC
MEAN_ELEMENT_THEORY = SGP/SGP4

EPOCH          = 2025-11-08T03:50:45.124800
MEAN_MOTION    = 14.26316457
ECCENTRICITY   = .0015958
INCLINATION    = 88.9954
RA_OF_ASC_NODE = 66.0106
ARG_OF_PERICENTER = 144.9529
MEAN_ANOMALY   = 215.2718

EPHEMERIS_TYPE = 0
CLASSIFICATION_TYPE = U
NORAD_CAT_ID   = 66048
ELEMENT_SET_NO = 999
REV_AT_EPOCH   = 311
BSTAR          = .36995E-3
MEAN_MOTION_DOT = .903E-5
MEAN_MOTION_DDOT = 0

CCSDS_OMM_VERS = 2.0
CREATION_DATE  = 
ORIGINATOR     = 

OBJECT_NAME    = QIANFAN-107
OBJECT_ID      = 2025-233S
CENTER_NAME    = EARTH
REF_FRAME      = TEME
TIME_SYSTEM    = UTC
MEAN_ELEMENT_THEORY = SGP/SGP4

EPOCH          = 2025-11-08T03:50:22.473312
MEAN_MOTION    = 14.26345393
ECCENTRICITY   = .0016746
INCLINATION    = 88.9953
RA_OF_ASC_NODE = 66.0105
ARG_OF_PERICENTER = 143.1144
MEAN_ANOMALY   = 217.1205

EPHEMERIS_TYPE = 0
CLASSIFICATION_TYPE = U
NORAD_CAT_ID   = 66049
ELEMENT_SET_NO = 999
REV_AT_EPOCH   = 311
BSTAR          = .37338E-3
MEAN_MOTION_DOT = .912E-5
MEAN_MOTION_DDOT = 0

CCSDS_OMM_VERS = 2.0
CREATION_DATE  = 
ORIGINATOR     = 

OBJECT_NAME    = QIANFAN-108
OBJECT_ID      = 2025-233T
CENTER_NAME    = EARTH
REF_FRAME      = TEME
TIME_SYSTEM    = UTC
MEAN_ELEMENT_THEORY = SGP/SGP4

EPOCH          = 2025-11-08T03:49:57.722304
MEAN_MOTION    = 14.26358377
ECCENTRICITY   = .0016716
INCLINATION    = 88.9953
RA_OF_ASC_NODE = 66.0104
ARG_OF_PERICENTER = 144.7844
MEAN_ANOMALY   = 215.4458

EPHEMERIS_TYPE = 0
CLASSIFICATION_TYPE = U
NORAD_CAT_ID   = 66050
ELEMENT_SET_NO = 999
REV_AT_EPOCH   = 311
BSTAR          = .36919E-3
MEAN_MOTION_DOT = .902E-5
MEAN_MOTION_DDOT = 0

CCSDS_OMM_VERS = 2.0
CREATION_DATE  = 
ORIGINATOR     = 

OBJECT_NAME    = CZ-6A R/B
OBJECT_ID      = 2025-233U
CENTER_NAME    = EARTH
REF_FRAME      = TEME
TIME_SYSTEM    = UTC
MEAN_ELEMENT_THEORY = SGP/SGP4

EPOCH          = 2025-11-08T02:46:20.457120
MEAN_MOTION    = 14.57016340
ECCENTRICITY   = .0085484
INCLINATION    = 89.0292
RA_OF_ASC_NODE = 65.9396
ARG_OF_PERICENTER = 45.4153
MEAN_ANOMALY   = 315.3992

EPHEMERIS_TYPE = 0
CLASSIFICATION_TYPE = U
NORAD_CAT_ID   = 66051
ELEMENT_SET_NO = 999
REV_AT_EPOCH   = 317
BSTAR          = .99721E-4
MEAN_MOTION_DOT = .49E-5
MEAN_MOTION_DDOT = 0

CCSDS_OMM_VERS = 2.0
CREATION_DATE  = 
ORIGINATOR     = 

OBJECT_NAME    = 2025-234A
OBJECT_ID      = 2025-234A
CENTER_NAME    = EARTH
REF_FRAME      = TEME
TIME_SYSTEM    = UTC
MEAN_ELEMENT_THEORY = SGP/SGP4

EPOCH          = 2025-11-08T04:16:47.582400
MEAN_MOTION    = 15.22657972
ECCENTRICITY   = .001456
INCLINATION    = 97.4606
RA_OF_ASC_NODE = 17.6924
ARG_OF_PERICENTER = 215.0046
MEAN_ANOMALY   = 145.0235

EPHEMERIS_TYPE = 0
CLASSIFICATION_TYPE = U
NORAD_CAT_ID   = 66053
ELEMENT_SET_NO = 999
REV_AT_EPOCH   = 305
BSTAR          = .16612E-2
MEAN_MOTION_DOT = .38879E-3
MEAN_MOTION_DDOT = 0

CCSDS_OMM_VERS = 2.0
CREATION_DATE  = 
ORIGINATOR     = 

OBJECT_NAME    = 2025-234B
OBJECT_ID      = 2025-234B
CENTER_NAME    = EARTH
REF_FRAME      = TEME
TIME_SYSTEM    = UTC
MEAN_ELEMENT_THEORY = SGP/SGP4

EPOCH          = 2025-11-08T04:32:30.088032
MEAN_MOTION    = 15.21252721
ECCENTRICITY   = .0014284
INCLINATION    = 97.5034
RA_OF_ASC_NODE = 17.7843
ARG_OF_PERICENTER = 206.6458
MEAN_ANOMALY   = 153.4045

EPHEMERIS_TYPE = 0
CLASSIFICATION_TYPE = U
NORAD_CAT_ID   = 66054
ELEMENT_SET_NO = 999
REV_AT_EPOCH   = 305
BSTAR          = .46985E-3
MEAN_MOTION_DOT = .1046E-3
MEAN_MOTION_DDOT = 0

CCSDS_OMM_VERS = 2.0
CREATION_DATE  = 
ORIGINATOR     = 

OBJECT_NAME    = 2025-234C
OBJECT_ID      = 2025-234C
CENTER_NAME    = EARTH
REF_FRAME      = TEME
TIME_SYSTEM    = UTC
MEAN_ELEMENT_THEORY = SGP/SGP4

EPOCH          = 2025-11-08T04:30:11.346048
MEAN_MOTION    = 15.21402493
ECCENTRICITY   = .0014953
INCLINATION    = 97.4557
RA_OF_ASC_NODE = 17.6676
ARG_OF_PERICENTER = 208.7239
MEAN_ANOMALY   = 151.3174

EPHEMERIS_TYPE = 0
CLASSIFICATION_TYPE = U
NORAD_CAT_ID   = 66055
ELEMENT_SET_NO = 999
REV_AT_EPOCH   = 305
BSTAR          = .38933E-3
MEAN_MOTION_DOT = .8694E-4
MEAN_MOTION_DDOT = 0

CCSDS_OMM_VERS = 2.0
CREATION_DATE  = 
ORIGINATOR     = 

OBJECT_NAME    = 2025-234D
OBJECT_ID      = 2025-234D
CENTER_NAME    = EARTH
REF_FRAME      = TEME
TIME_SYSTEM    = UTC
MEAN_ELEMENT_THEORY = SGP/SGP4

EPOCH          = 2025-11-08T04:26:28.212000
MEAN_MOTION    = 15.21927002
ECCENTRICITY   = .0014871
INCLINATION    = 97.4535
RA_OF_ASC_NODE = 17.6655
ARG_OF_PERICENTER = 208.1847
MEAN_ANOMALY   = 151.8585

EPHEMERIS_TYPE = 0
CLASSIFICATION_TYPE = U
NORAD_CAT_ID   = 66056
ELEMENT_SET_NO = 999
REV_AT_EPOCH   = 304
BSTAR          = .11889E-2
MEAN_MOTION_DOT = .27173E-3
MEAN_MOTION_DDOT = 0

CCSDS_OMM_VERS = 2.0
CREATION_DATE  = 
ORIGINATOR     = 

OBJECT_NAME    = 2025-234E
OBJECT_ID      = 2025-234E
CENTER_NAME    = EARTH
REF_FRAME      = TEME
TIME_SYSTEM    = UTC
MEAN_ELEMENT_THEORY = SGP/SGP4

EPOCH          = 2025-11-07T22:07:20.507232
MEAN_MOTION    = 15.34034227
ECCENTRICITY   = .0013477
INCLINATION    = 97.4830
RA_OF_ASC_NODE = 17.6456
ARG_OF_PERICENTER = 228.4016
MEAN_ANOMALY   = 131.6072

EPHEMERIS_TYPE = 0
CLASSIFICATION_TYPE = U
NORAD_CAT_ID   = 66057
ELEMENT_SET_NO = 999
REV_AT_EPOCH   = 302
BSTAR          = .11834E-1
MEAN_MOTION_DOT = .411763E-2
MEAN_MOTION_DDOT = 0

CCSDS_OMM_VERS = 2.0
CREATION_DATE  = 
ORIGINATOR     = 

OBJECT_NAME    = STARLINK-35552
OBJECT_ID      = 2025-235A
CENTER_NAME    = EARTH
REF_FRAME      = TEME
TIME_SYSTEM    = UTC
MEAN_ELEMENT_THEORY = SGP/SGP4

EPOCH          = 2025-11-08T04:00:01.998720
MEAN_MOTION    = 15.72129886
ECCENTRICITY   = .0001737
INCLINATION    = 53.1569
RA_OF_ASC_NODE = 92.2093
ARG_OF_PERICENTER = 21.8086
MEAN_ANOMALY   = 232.7517

EPHEMERIS_TYPE = 0
CLASSIFICATION_TYPE = U
NORAD_CAT_ID   = 66058
ELEMENT_SET_NO = 999
REV_AT_EPOCH   = 431
BSTAR          = .10155E-2
MEAN_MOTION_DOT = .137826E-2
MEAN_MOTION_DDOT = 0

